24903,IRIDIUM 26,1997,100.2,-1.0,-,86.4,Inactive,0,LEO,USA,USA,Unknown,Unknown,Unknown,1 24903U 97043A   25186.28891583  .00000305  00000+0  96075-4 0  9995,2 24903  86.3958 103.0197 0002344  80.9078 279.2385 14.37157091459344,14.37157091,0.0002344,LEO
24907,IRIDIUM 22,1997,100.28,-1.0,-,86.4,Inactive,0,LEO,USA,USA,Unknown,Unknown,Unknown,1 24907U 97043E   25186.30338802  .00000269  00000+0  86071-4 0  9996,2 24907  86.3965 106.5691 0002174  83.5377 276.6067 14.35968057459376,14.35968057,0.0002174,LEO
24925,DUMMY MASS 1,1997,96.84,-1.0,-,86.34,Inactive,0,LEO,PRC,China,Unknown,Unknown,Unknown,1 24925U 97048A   25186.31753127  .00000360  00000+0  37007-4 0  9990,2 24925  86.3364 126.9491 0009067  84.3563 275.8696 14.86998014507822,14.86998014,0.0009067,LEO
24926,DUMMY MASS 2,1997,96.86,-1.0,-,86.34,Inactive,0,LEO,PRC,China,Unknown,Unknown,Unknown,1 24926U 97048B   25186.35000480  .00000365  00000+0  37761-4 0  9994,2 24926  86.3364 128.5443 0009872  92.9550 267.2805 14.86750033507603,14.86750033,0.0009872,LEO
24944,IRIDIUM 29,1997,100.25,-1.0,-,86.4,Inactive,0,LEO,Kazakhstan,USA,Unknown,Unknown,Unknown,1 24944U 97051A   25186.38954170  .00000343  00000+0  11012-3 0  9991,2 24944  86.3980 136.2657 0002142  90.0152 270.1290 14.36479972455888,14.36479972,0.0002142,LEO
24946,IRIDIUM 33,1997,100.36,-1.0,-,86.39,Inactive,0,LEO,Kazakhstan,USA,Unknown,Unknown,Unknown,1 24946U 97051C   25186.39133705  .00000285  00000+0  93350-4 0  9998,2 24946  86.3895 135.5267 0008970  32.6899 327.4850 14.34901946455358,14.34901946,0.000897,LEO
24948,IRIDIUM 28,1997,100.18,-1.0,-,86.4,Inactive,0,LEO,Kazakhstan,USA,Unknown,Unknown,Unknown,1 24948U 97051E   25186.76939847  .00000306  00000+0  95924-4 0  9995,2 24948  86.3984 133.6124 0002557  76.3272 283.8211 14.37396552456581,14.37396552,0.0002557,LEO
24967,IRIDIUM 36,1997,100.17,-1.0,-,86.4,Inactive,0,LEO,USA,USA,Unknown,Unknown,Unknown,1 24967U 97056C   25186.45143325  .00000340  00000+0  10688-3 0  9996,2 24967  86.3994 165.3299 0002150  82.1560 277.9881 14.37621215454843,14.37621215,0.000215,LEO
